NUSAT-1 (FRESCO)        
1 41557U 16033B   22105.55171564  .00013303  00000+0  41986-3 0  9999
2 41557  97.3841 203.2362 0010823 236.6592 180.9495 15.32920429327747
BEESAT-4                
1 41619U 16040W   22105.40287304  .00015275  00000+0  54074-3 0  9992
2 41619  97.2247 157.7760 0008848 350.4920   9.6152 15.29187096311082
CAS-2T & KS-1Q          
1 41847U 16066G   22105.18768754  .00000940  00000+0  15003-3 0  9993
2 41847  98.5565 169.9085 0364897  39.2499 323.4546 14.38488380285251
NAYIF-1 (EO-88)         
1 42017U 17008BX  22105.14165541  .00018621  00000+0  59694-3 0  9990
2 42017  97.2752 172.2562 0006806 114.3013 245.8941 15.32375791287379
ZHUHAI-1 02 (CAS-4B)    
1 42759U 17034B   22105.59893058  .00004299  00000+0  26312-3 0  9999
2 42759  43.0191 319.0211 0009640 258.4792 149.4654 15.11360678266847
ZHUHAI-1 01 (CAS-4A)    
1 42761U 17034D   22105.57112375  .00004520  00000+0  27529-3 0  9994
2 42761  43.0189 318.0090 0010058 260.9494 139.9059 15.11449259266849
MAX VALIER SAT          
1 42778U 17036P   22105.39082067  .00009156  00000+0  36028-3 0  9992
2 42778  97.2137 148.6828 0011511 180.2202 179.9034 15.25793596267280
RADFXSAT (FOX-1B)       
1 43017U 17073E   22105.47794429  .00005736  00000+0  43404-3 0  9997
2 43017  97.6828   2.2387 0251552  34.3217 327.3964 14.80828134237790
FOX-1D (AO-92)          
1 43137U 18004AC  22105.45420325  .00010595  00000+0  39025-3 0  9997
2 43137  97.3724 181.2305 0007393 215.6117 144.4630 15.27990878236725
DIWATA-2B               
1 43678U 18084H   22105.54686464  .00001513  00000+0  15479-3 0  9990
2 43678  97.9588 238.1198 0010965 128.4101 231.8076 14.92039992188479
ES'HAIL 2               
1 43700U 18090A   22105.50827792  .00000148  00000+0  00000+0 0  9993
2 43700   0.0183 168.6579 0002581 247.8527 355.9028  1.00272213 12396
FOX-1CLIFF (AO-95)      
1 43770U 18099N   22105.46065269  .00003101  00000+0  28042-3 0  9999
2 43770  97.6255 173.4466 0015775 124.7269 235.5440 14.96059357183592
ITASAT 1                
1 43786U 18099AE  22105.46110431  .00002634  00000+0  23771-3 0  9992
2 43786  97.6278 174.3292 0016448 118.3068 241.9815 14.96257253183632
JY1SAT (JO-97)          
1 43803U 18099AX  22105.43113076  .00002329  00000+0  20867-3 0  9991
2 43803  97.6246 174.0427 0016071 117.1831 243.1031 14.96669260183641
UWE-4                   
1 43880U 18111E   22105.47578003  .00003192  00000+0  27688-3 0  9997
2 43880  97.6719  12.8912 0012524 164.9780 195.1817 14.97721882180275
NEXUS (FO-99)           
1 43937U 19003F   22105.57516320  .00013326  00000+0  47183-3 0  9998
2 43937  97.1380 141.4199 0021586  24.0728 336.1517 15.29021428180368
PSAT2 (NO-104)          
1 44354U 19036R   22105.55452184  .00049409 -56427-5  49952-3 0  9991
2 44354  28.5274 251.7113 0257987 346.2657  13.1026 15.31783959155006
BRICSAT2 (NO-103)       
1 44355U 19036S   22105.30547281  .01564951  15029-2  17501-2 0  9996
2 44355  28.5129 121.0159 0053522 195.5996 164.2970 16.05427776156275
JAISAT-1                
1 44419U 19038F   22105.43521526  .00009867  00000+0  51224-3 0  9997
2 44419  97.6308  75.1241 0019456 357.0346   3.0768 15.16163909153509
DUCHIFAT-3              
1 44854U 19089C   22105.37032656  .00003729  00000+0  29600-3 0  9994
2 44854  36.9657 114.1866 0006973  63.3360 296.8073 15.00553816128455
CAS-6 (TO-108)          
1 44881U 19093C   22105.50384368  .00000705  00000+0  96128-4 0  9995
2 44881  97.8942 185.6144 0015883  35.7935 324.4338 14.81639413125456
RS-44 & BREEZE-KM R/B   
1 44909U 19096E   22105.56770534  .00000011  00000+0 -10442-4 0  9995
2 44909  82.5173 272.0551 0218403 106.7289 255.7903 12.79713232107463
ORBITAL FACTORY 2 (OF-2)
1 45113U 19071C   22105.44882090  .00023306  00000+0  54364-3 0  9995
2 45113  51.6414   8.6180 0008389 305.4837  54.5366 15.42081602123642
HUSKYSAT-1 (HO-107)     
1 45119U 19071J   22105.42448530  .00022338  00000+0  53124-3 0  9993
2 45119  51.6410   8.4361 0008135 301.3806  58.6383 15.41527597123633
BY70-2                  
1 45857U 20042B   22105.52244258  .00007817  00000+0  10676-2 0  9993
2 45857  97.9561 183.0051 0009019 325.2612  34.7984 14.78844420 96154
SALSAT                  
1 46495U 20068K   22105.37263684  .00002718  00000+0  19974-3 0  9993
2 46495  97.7260  46.6891 0018005 127.7673 232.5187 15.04165340 84708
BY70-3                  
1 46839U 20079N   22105.56993495  .00021685  00000+0  56158-3 0  9997
2 46839  97.2027 178.6054 0006526 189.0222 278.6853 15.39044757 80566
RADFXSAT-2 (AO-109)     
1 47311U 21002C   22105.58137373  .00009858  00000+0  41241-3 0  9992
2 47311  60.6855 238.7194 0011867 242.7035 117.2844 15.24115836 68870
UVSQ-SAT                
1 47438U 21006AB  22105.41385381  .00006334  00000+0  34362-3 0  9994
2 47438  97.4439 165.7354 0013638 130.5706 229.6716 15.14822791 67734
DIY-1 (ARDUIQUBE)       
1 47963U 21022AH  22104.96495932  .00019364  00000+0  11484-2 0  9994
2 47963  97.5383   7.1442 0017642 359.8364   0.2857 15.11267120 57350
XW-3 (CAS-9)            
1 50466U 21131B   22105.50069379  .00000193  00000+0  77690-4 0  9993
2 50466  98.5824 182.7801 0003871 352.5736   7.5393 14.38465654 15869
